NORAD_CAT_ID,OBJECT_NAME,OBJECT_TYPE,EPOCH,MEAN_MOTION,ECCENTRICITY,INCLINATION,RA_OF_ASC_NODE,ARG_OF_PERICENTER,MEAN_ANOMALY,BSTAR,MEAN_MOTION_DOT,MEAN_MOTION_DDOT,TLE_LINE0,TLE_LINE1,TLE_LINE2,SEMIMAJOR_AXIS,PERIOD,APOGEE,PERIGEE,DECAYED
56784.0,STARLINK-6354,PAYLOAD,2024-07-01 10:43:20,14.98341111,0.0003085,70.0,78.3318,268.3144,91.7662,-3.0129e-05,-4.53e-06,0.0,0 STARLINK-6354,1 56784U 23078T   24183.44677008 -.00000453  00000-0 -30129-4 0  9997,2 56784  70.0000  78.3318 0003085 268.3144  91.7662 14.98341111 60867,6950.159,96.106,574.168,569.879,0.0
56784.0,STARLINK-6354,PAYLOAD,2024-07-01 20:20:09,14.9832334,0.0003227,70.0,77.3218,266.5553,93.5237,0.00025754,2.981e-05,0.0,0 STARLINK-6354,1 56784U 23078T   24183.84733408  .00002981  00000-0  25754-3 0  9991,2 56784  70.0000  77.3218 0003227 266.5553  93.5237 14.98323340 61185,6950.213,96.107,574.321,569.836,0.0
56784.0,STARLINK-6354,PAYLOAD,2024-07-01 21:56:17,14.98323573,0.0003228,70.0,77.1535,266.5235,93.5555,0.00025407,2.939e-05,0.0,0 STARLINK-6354,1 56784U 23078T   24183.91409426  .00002939  00000-0  25407-3 0  9997,2 56784  70.0000  77.1535 0003228 266.5235  93.5555 14.98323573 60936,6950.213,96.107,574.321,569.834,0.0
56784.0,STARLINK-6354,PAYLOAD,2024-07-02 02:44:41,14.98331016,0.0003359,69.9995,76.6471,266.7514,93.326,0.00027076,3.139e-05,0.0,0 STARLINK-6354,1 56784U 23078T   24184.11436898  .00003139  00000-0  27076-3 0  9990,2 56784  69.9995  76.6471 0003359 266.7514  93.3260 14.98331016 61221,6950.19,96.107,574.389,569.72,0.0
56784.0,STARLINK-6354,PAYLOAD,2024-07-02 20:22:10,14.98333399,0.0003305,69.9993,74.7955,265.8741,94.2041,-7.4344e-05,-9.8e-06,0.0,0 STARLINK-6354,1 56784U 23078T   24184.84873637 -.00000980  00000-0 -74344-4 0  9990,2 56784  69.9993  74.7955 0003305 265.8741  94.2041 14.98333399 61333,6950.182,96.107,574.344,569.75,0.0
56784.0,STARLINK-6354,PAYLOAD,2024-07-02 21:58:18,14.98333387,0.0003254,69.9996,74.6273,266.5432,93.5354,-6.9239e-05,-9.19e-06,0.0,0 STARLINK-6354,1 56784U 23078T   24184.91549637 -.00000919  00000-0 -69239-4 0  9997,2 56784  69.9996  74.6273 0003254 266.5432  93.5354 14.98333387 61084,6950.182,96.107,574.309,569.786,0.0
56784.0,STARLINK-6354,PAYLOAD,2024-07-03 20:24:11,14.98331382,0.0003236,69.9999,72.2708,267.8328,92.246,-1.602e-05,-2.84e-06,0.0,0 STARLINK-6354,1 56784U 23078T   24185.85013215 -.00000284  00000-0 -16020-4 0  9994,2 56784  69.9999  72.2708 0003236 267.8328  92.2460 14.98331382 61483,6950.189,96.107,574.303,569.805,0.0
56784.0,STARLINK-6354,PAYLOAD,2024-07-03 22:00:19,14.98331022,0.0003272,70.0,72.1035,265.3143,94.7643,-1.0025e-05,-2.13e-06,0.0,0 STARLINK-6354,1 56784U 23078T   24185.91689173 -.00000213  00000-0 -10025-4 0  9994,2 56784  70.0000  72.1035 0003272 265.3143  94.7643 14.98331022 61233,6950.19,96.107,574.329,569.781,0.0
56784.0,STARLINK-6354,PAYLOAD,2024-07-04 09:13:15,14.98362079,0.0003338,70.0003,70.9255,270.0152,90.0625,-0.00055389,-6.701e-05,0.0,0 STARLINK-6354,1 56784U 23078T   24186.38420275 -.00006701  00000-0 -55389-3 0  9991,2 56784  70.0003  70.9255 0003338 270.0152  90.0625 14.98362079 61563,6950.094,96.105,574.279,569.639,0.0
56784.0,STARLINK-6354,PAYLOAD,2024-07-04 20:26:12,14.98331367,0.0003053,70.0002,69.7465,269.7447,90.3362,1.3467e-05,6.8e-07,0.0,0 STARLINK-6354,1 56784U 23078T   24186.85152972  .00000068  00000-0  13467-4 0  9999,2 56784  70.0002  69.7465 0003053 269.7447  90.3362 14.98331367 61632,6950.189,96.107,574.176,569.932,0.0
56784.0,STARLINK-6354,PAYLOAD,2024-07-04 22:02:20,14.98331327,0.0003053,70.0002,69.5782,269.7336,90.3473,1.282e-05,6e-07,0.0,0 STARLINK-6354,1 56784U 23078T   24186.91828969  .00000060  00000-0  12820-4 0  9996,2 56784  70.0002  69.5782 0003053 269.7336  90.3473 14.98331327 61380,6950.189,96.107,574.176,569.932,0.0
56784.0,STARLINK-6354,PAYLOAD,2024-07-05 02:50:44,14.98336009,0.000303,70.0001,69.0737,265.9482,94.1331,4.7857e-05,4.78e-06,0.0,0 STARLINK-6354,1 56784U 23078T   24187.11856493  .00000478  00000-0  47857-4 0  9993,2 56784  70.0001  69.0737 0003030 265.9482  94.1331 14.98336009 61410,6950.174,96.107,574.145,569.933,0.0
56784.0,STARLINK-6354,PAYLOAD,2024-07-05 20:28:13,14.9832917,0.0003001,70.0001,67.2221,267.1766,92.905,-1.7193e-05,-2.98e-06,0.0,0 STARLINK-6354,1 56784U 23078T   24187.85293023 -.00000298  00000-0 -17193-4 0  9990,2 56784  70.0001  67.2221 0003001 267.1766  92.9050 14.98329170 61780,6950.195,96.107,574.146,569.975,0.0
56784.0,STARLINK-6354,PAYLOAD,2024-07-05 22:04:21,14.98329666,0.0003005,70.0001,67.0537,267.0897,92.9918,-1.1896e-05,-2.35e-06,0.0,0 STARLINK-6354,1 56784U 23078T   24187.91968976 -.00000235  00000-0 -11896-4 0  9998,2 56784  70.0001  67.0537 0003005 267.0897  92.9918 14.98329666 61532,6950.194,96.107,574.147,569.97,0.0
56784.0,STARLINK-6354,PAYLOAD,2024-07-06 09:17:17,14.98333235,0.0003071,70.0002,65.876,268.7307,91.35,-5.5498e-05,-7.55e-06,0.0,0 STARLINK-6354,1 56784U 23078T   24188.38700790 -.00000755  00000-0 -55498-4 0  9991,2 56784  70.0002  65.8760 0003071 268.7307  91.3500 14.98333235 61609,6950.183,96.107,574.182,569.913,0.0
56784.0,STARLINK-6354,PAYLOAD,2024-07-06 20:30:14,14.98326989,0.0003026,70.0001,64.6972,270.3983,89.6829,-4.3304e-05,-6.1e-06,0.0,0 STARLINK-6354,1 56784U 23078T   24188.85433225 -.00000610  00000-0 -43304-4 0  9992,2 56784  70.0001  64.6972 0003026 270.3983  89.6829 14.98326989 61937,6950.202,96.107,574.17,569.964,0.0
56784.0,STARLINK-6354,PAYLOAD,2024-07-06 22:06:21,14.98334112,0.0003497,69.9987,64.5265,267.941,92.1348,-1.6229e-05,-2.87e-06,0.0,0 STARLINK-6354,1 56784U 23078T   24188.92108567 -.00000287  00000-0 -16229-4 0  9994,2 56784  69.9987  64.5265 0003497 267.9410  92.1348 14.98334112 61684,6950.18,96.107,574.476,569.615,0.0
56784.0,STARLINK-6354,PAYLOAD,2024-07-07 01:18:36,14.98350698,0.000283,70.0003,64.1921,269.4566,90.6269,0.00019899,2.283e-05,0.0,0 STARLINK-6354,1 56784U 23078T   24189.05458954  .00002283  00000-0  19899-3 0  9998,2 56784  70.0003  64.1921 0002830 269.4566  90.6269 14.98350698 61963,6950.129,96.106,573.961,570.027,0.0
56784.0,STARLINK-6354,PAYLOAD,2024-07-07 09:19:17,14.98337646,0.0003471,70.0009,63.3499,267.3182,92.7579,4.2295e-05,4.12e-06,0.0,0 STARLINK-6354,1 56784U 23078T   24189.38839710  .00000412  00000-0  42295-4 0  9996,2 56784  70.0009  63.3499 0003471 267.3182  92.7579 14.98337646 62015,6950.169,96.107,574.447,569.622,0.0
56784.0,STARLINK-6354,PAYLOAD,2024-07-07 20:32:15,14.98322307,0.0002858,70.0005,62.1709,265.0869,94.9964,-6.7076e-05,-8.93e-06,0.0,0 STARLINK-6354,1 56784U 23078T   24189.85573240 -.00000893  00000-0 -67076-4 0  9990,2 56784  70.0005  62.1709 0002858 265.0869  94.9964 14.98322307 62084,6950.217,96.107,574.068,570.095,0.0
56784.0,STARLINK-6354,PAYLOAD,2024-07-08 09:21:19,14.98327224,0.0002953,69.9999,60.8241,267.8263,92.2558,-3.8526e-05,-5.53e-06,0.0,0 STARLINK-6354,1 56784U 23078T   24190.38980934 -.00000553  00000-0 -38526-4 0  9993,2 56784  69.9999  60.8241 0002953 267.8263  92.2558 14.98327224 62165,6950.201,96.107,574.119,570.014,0.0
56784.0,STARLINK-6354,PAYLOAD,2024-07-08 22:10:23,14.98330161,0.0003185,69.9995,59.4782,267.868,92.2114,3.0773e-05,2.74e-06,0.0,0 STARLINK-6354,1 56784U 23078T   24190.92388562  .00000274  00000-0  30773-4 0  9996,2 56784  69.9995  59.4782 0003185 267.8680  92.2114 14.98330161 61987,6950.192,96.107,574.271,569.844,0.0
56784.0,STARLINK-6354,PAYLOAD,2024-07-09 01:22:39,14.98330952,0.0003046,69.9997,59.1411,268.3333,91.7477,4.5622e-05,4.51e-06,0.0,0 STARLINK-6354,1 56784U 23078T   24191.05740463  .00000451  00000-0  45622-4 0  9999,2 56784  69.9997  59.1411 0003046 268.3333  91.7477 14.98330952 62268,6950.19,96.107,574.172,569.938,0.0
56784.0,STARLINK-6354,PAYLOAD,2024-07-09 14:11:44,14.9832586,0.0002842,69.9998,57.7946,268.6577,91.4256,3.479e-05,3.22e-06,0.0,0 STARLINK-6354,1 56784U 23078T   24191.59148702  .00000322  00000-0  34790-4 0  9997,2 56784  69.9998  57.7946 0002842 268.6577  91.4256 14.98325860 62086,6950.206,96.107,574.046,570.095,0.0
56784.0,STARLINK-6354,PAYLOAD,2024-07-09 22:12:24,14.98323987,0.0002979,69.9997,56.953,267.6447,92.4371,3.8726e-05,3.69e-06,0.0,0 STARLINK-6354,1 56784U 23078T   24191.92528873  .00000369  00000-0  38726-4 0  9999,2 56784  69.9997  56.9530 0002979 267.6447  92.4371 14.98323987 62134,6950.211,96.107,574.147,570.006,0.0
56784.0,STARLINK-6354,PAYLOAD,2024-07-10 01:24:40,14.98326026,0.0002972,69.9998,56.6163,267.7249,92.357,5.9023e-05,6.11e-06,0.0,0 STARLINK-6354,1 56784U 23078T   24192.05880724  .00000611  00000-0  59023-4 0  9993,2 56784  69.9998  56.6163 0002972 267.7249  92.3570 14.98326026 62416,6950.205,96.107,574.136,570.005,0.0
56784.0,STARLINK-6354,PAYLOAD,2024-07-10 11:01:29,14.98327729,0.0002946,69.9999,55.6063,268.4891,91.593,2.2864e-05,1.8e-06,0.0,0 STARLINK-6354,1 56784U 23078T   24192.45936784  .00000180  00000-0  22864-4 0  9999,2 56784  69.9999  55.6063 0002946 268.4891  91.5930 14.98327729 62217,6950.2,96.107,574.112,570.017,0.0
56784.0,STARLINK-6354,PAYLOAD,2024-07-10 22:14:25,14.98329076,0.0003085,70.0,54.4283,271.3773,88.7033,2.341e-05,1.86e-06,0.0,0 STARLINK-6354,1 56784U 23078T   24192.92668716  .00000186  00000-0  23410-4 0  9992,2 56784  70.0000  54.4283 0003085 271.3773  88.7033 14.98329076 62287,6950.196,96.107,574.205,569.917,0.0
56784.0,STARLINK-6354,PAYLOAD,2024-07-10 23:50:33,14.98330993,0.0003017,69.9999,54.2603,268.7501,91.3312,1.5574e-05,9.3e-07,0.0,0 STARLINK-6354,1 56784U 23078T   24192.99344599  .00000093  00000-0  15574-4 0  9998,2 56784  69.9999  54.2603 0003017 268.7501  91.3312 14.98330993 62290,6950.19,96.107,574.152,569.958,0.0
56784.0,STARLINK-6354,PAYLOAD,2024-07-11 17:28:02,14.98330081,0.000298,70.0001,52.4085,269.7734,90.3083,3.0356e-05,2.69e-06,0.0,0 STARLINK-6354,1 56784U 23078T   24193.72780555  .00000269  00000-0  30356-4 0  9996,2 56784  70.0001  52.4085 0002980 269.7734  90.3083 14.98330081 62661,6950.193,96.107,574.129,569.986,0.0
